SEEDS II (CO-66)        
1 32791U 08021J   26068.92109284  .00023758  00000+0  84213-3 0  9995
2 32791  97.7519  62.3611 0001448 359.2618   0.8619 15.29097235972108
STARLINK-36458          
1 67343U 26003K   26068.48126518  .00036087  00000+0  13148-2 0  9993
2 67343  42.9974 228.0961 0001430 230.7461 129.3264 15.27571621  8797
