[{"OBJECT_NAME":"SEEDS II (CO-66)","OBJECT_ID":"2008-021J","EPOCH":"2026-03-09T22:06:22.421376","MEAN_MOTION":15.29097236,"ECCENTRICITY":0.00014475,"INCLINATION":97.7519,"RA_OF_ASC_NODE":62.3611,"ARG_OF_PERICENTER":359.2618,"MEAN_ANOMALY":0.8619,"EPHEMERIS_TYPE":0,"CLASSIFICATION_TYPE":"U","NORAD_CAT_ID":32791,"ELEMENT_SET_NO":999,"REV_AT_EPOCH":97210,"BSTAR":0.00084213052,"MEAN_MOTION_DOT":0.00023758,"MEAN_MOTION_DDOT":0},{"OBJECT_NAME":"STARLINK-36458","OBJECT_ID":"2026-003K","EPOCH":"2026-03-09T11:33:01.311552","MEAN_MOTION":15.27571621,"ECCENTRICITY":0.00014309,"INCLINATION":42.9974,"RA_OF_ASC_NODE":228.0961,"ARG_OF_PERICENTER":230.7461,"MEAN_ANOMALY":129.3264,"EPHEMERIS_TYPE":0,"CLASSIFICATION_TYPE":"U","NORAD_CAT_ID":67343,"ELEMENT_SET_NO":999,"REV_AT_EPOCH":879,"BSTAR":0.0013148191,"MEAN_MOTION_DOT":0.00036087,"MEAN_MOTION_DDOT":0}]
